0 PEGASUS DEB
1 24163U 94029HN  13283.11616497  .00006622  00000-0  60026-3 0   424
2 24163 082.0647 047.0396 0061304 189.6881 231.3040 14.93748185937832
0 PEGASUS DEB
1 24163U 94029HN  13287.13405623  .00006614  00000-0  59876-3 0   441
2 24163 082.0652 042.9818 0061462 176.4053 237.7637 14.93788797938433
0 PEGASUS DEB
1 24163U 94029HN  13289.49209808  .00007375  00000-0  66713-3 0   453
2 24163 082.0661 040.6010 0061562 168.7163 318.5059 14.93826772938789
0 PEGASUS DEB
1 24163U 94029HN  13291.50251576  .00007159  00000-0  64703-3 0   465
2 24163 082.0663 038.5711 0061679 161.9657 330.2666 14.93849942939080
0 PEGASUS DEB
1 24163U 94029HN  13293.51105949  .00008018  00000-0  72440-3 0   473
2 24163 082.0664 036.5431 0061683 155.4550 331.8929 14.93874486939386
0 PEGASUS DEB
1 24163U 94029HN  13295.51437524  .00007792  00000-0  70330-3 0   487
2 24163 082.0659 034.5203 0061807 148.9140 305.6299 14.93901724939683
